OBJECT_NAME,OBJECT_ID,EPOCH,MEAN_MOTION,ECCENTRICITY,INCLINATION,RA_OF_ASC_NODE,ARG_OF_PERICENTER,MEAN_ANOMALY,EPHEMERIS_TYPE,CLASSIFICATION_TYPE,NORAD_CAT_ID,ELEMENT_SET_NO,REV_AT_EPOCH,BSTAR,MEAN_MOTION_DOT,MEAN_MOTION_DDOT
GLOBALSTAR M069,2007-020C,2026-07-21T06:39:59.668416,12.23472434,.00015008,52.0016,155.6351,223.5190,282.3705,0,U,31573,999,88297,.36908606E-3,-.53E-6,0
GLOBALSTAR M072,2007-020D,2026-07-20T18:43:29.061408,11.91658720,.00016484,51.9952,10.8115,45.7413,56.8102,0,U,31574,999,87898,-.1048629E-3,-.92E-6,0
GLOBALSTAR M066,2007-048C,2026-07-20T14:46:57.997920,12.30390155,.000552,51.9612,321.9495,112.7664,260.2400,0,U,32265,999,86434,.51907E-3,-.33E-6,0
GLOBALSTAR M079,2010-054A,2026-07-20T19:11:47.651712,12.62266428,.00011222,52.0057,6.3479,86.8814,21.4025,0,U,37188,999,72679,.5972104E-5,-.103E-5,0
GLOBALSTAR M074,2010-054B,2026-07-20T17:25:50.613600,12.62262037,.00008499,52.0036,5.8322,101.4908,272.1774,0,U,37189,999,72739,-.22145228E-4,-.108E-5,0
GLOBALSTAR M076,2010-054C,2026-07-20T18:32:24.681696,12.62262572,.00010956,52.0052,5.8977,98.8648,4.8835,0,U,37190,999,72711,.78715558E-4,-.9E-6,0
GLOBALSTAR M077,2010-054D,2026-07-21T03:08:44.421216,11.67547146,.0002166,51.9962,93.1410,236.1382,271.8029,0,U,37191,999,72510,-.34664809E-3,-.97E-6,0
GLOBALSTAR M075,2010-054E,2026-07-21T06:37:03.663840,12.62267896,.00007912,51.9956,46.4005,73.3734,98.8792,0,U,37192,999,72624,-.29382216E-4,-.109E-5,0
GLOBALSTAR M073,2010-054F,2026-07-21T02:49:20.702208,12.62266955,.0000986,52.0082,321.0099,106.0331,65.5656,0,U,37193,999,72821,.33666122E-4,-.98E-6,0
GLOBALSTAR M083,2011-033A,2026-07-21T04:15:56.975328,12.62264365,.00006869,51.9854,269.0100,111.8727,274.4002,0,U,37739,999,69724,.45144795E-4,-.96E-6,0
GLOBALSTAR M088,2011-033B,2026-07-21T05:28:03.660960,12.62269504,.00001561,52.0192,175.3648,36.7878,335.9269,0,U,37740,999,69279,.67115656E-4,-.92E-6,0
GLOBALSTAR M091,2011-033C,2026-07-21T04:32:54.534912,12.62264318,.00005675,51.9989,138.3969,34.4458,104.6587,0,U,37741,999,69357,.10327486E-3,-.85E-6,0
GLOBALSTAR M085,2011-033D,2026-07-21T04:23:36.556800,12.62264522,.00008909,52.0129,89.7389,52.1304,117.6149,0,U,37742,999,69408,.63296789E-4,-.92E-6,0
GLOBALSTAR M081,2011-033E,2026-07-21T03:05:39.359328,12.62265384,.00007675,51.9960,92.3009,63.2894,100.2274,0,U,37743,999,69422,.41060443E-4,-.96E-6,0
GLOBALSTAR M089,2011-033F,2026-07-21T00:10:44.894784,12.62267640,.00007254,51.9941,46.8226,96.2894,56.1622,0,U,37744,999,69505,-.7708394E-5,-.105E-5,0
GLOBALSTAR M084,2011-080A,2026-07-21T05:34:11.609184,12.62263700,.00007009,52.0008,273.6402,141.3675,251.9871,0,U,38040,999,67306,.53982273E-4,-.94E-6,0
GLOBALSTAR M080,2011-080B,2026-07-20T22:00:55.859616,12.62257617,.00002972,52.0059,276.3288,69.7557,102.2410,0,U,38041,999,67314,.43088275E-4,-.96E-6,0
GLOBALSTAR M082,2011-080C,2026-07-20T08:14:25.638720,12.62264361,.00001918,52.0052,233.5791,59.3982,313.2431,0,U,38042,999,67378,.32460742E-4,-.98E-6,0
GLOBALSTAR M092,2011-080D,2026-07-21T06:24:34.795296,12.62267942,.00007265,52.0106,321.1655,112.4751,259.1482,0,U,38043,999,67235,.99912583E-4,-.86E-6,0
GLOBALSTAR M090,2011-080E,2026-07-21T02:05:38.381856,12.62269640,.00003897,52.0095,225.2810,81.6298,311.9227,0,U,38044,999,67399,.4474384E-4,-.96E-6,0
GLOBALSTAR M086,2011-080F,2026-07-20T12:05:10.422240,12.62287860,.00014199,51.9871,226.9319,119.1904,44.9170,0,U,38045,999,67386,-.7123301E-5,-.105E-5,0
GLOBALSTAR M097,2013-005A,2026-07-21T03:11:16.448064,12.62271304,.00005491,52.0040,140.0015,45.3552,314.7359,0,U,39072,999,62119,-.71785515E-4,-.117E-5,0
GLOBALSTAR M093,2013-005B,2026-07-21T04:26:47.544864,12.62266403,.00007867,52.0099,133.2020,52.8070,307.2868,0,U,39073,999,62115,.87812017E-4,-.88E-6,0
GLOBALSTAR M094,2013-005C,2026-07-21T06:20:37.040640,12.62264280,.00010402,51.9970,47.0444,73.2447,286.8533,0,U,39074,999,62277,-.2750154E-5,-.104E-5,0
GLOBALSTAR M096,2013-005D,2026-07-20T23:03:59.379552,12.62265888,.00008383,52.0076,96.7960,52.9453,307.1491,0,U,39075,999,62165,.86627167E-4,-.88E-6,0
GLOBALSTAR M078,2013-005E,2026-07-21T02:13:22.342080,12.62260097,.00009703,51.9848,180.3587,354.3095,5.7760,0,U,39076,999,62029,.19133926E-4,-.1E-5,0
GLOBALSTAR M095,2013-005F,2026-07-21T02:51:46.354464,12.62264122,.00005938,52.0055,177.9288,23.2482,336.8412,0,U,39077,999,62015,.51808531E-4,-.94E-6,0
GLOBALSTAR M087,2022-064A,2026-07-21T06:58:39.952416,12.62269480,.00008897,52.0016,318.6272,92.1323,267.9645,0,U,52888,999,19544,.97117779E-4,-.86E-6,0
